[{"OBJECT_NAME":"STARLINK-3769","OBJECT_ID":"2022-041AR","EPOCH":"2026-03-09T11:00:51.391296","MEAN_MOTION":15.08838223,"ECCENTRICITY":0.00013316,"INCLINATION":53.2177,"RA_OF_ASC_NODE":100.1565,"ARG_OF_PERICENTER":96.7246,"MEAN_ANOMALY":263.3898,"EPHEMERIS_TYPE":0,"CLASSIFICATION_TYPE":"U","NORAD_CAT_ID":52300,"ELEMENT_SET_NO":999,"REV_AT_EPOCH":21569,"BSTAR":-1.1850674e-5,"MEAN_MOTION_DOT":-4.76e-6,"MEAN_MOTION_DDOT":0},{"OBJECT_NAME":"SL-12 DEB","OBJECT_ID":"2010-007AT","EPOCH":"2026-03-08T12:27:49.447584","MEAN_MOTION":4.39455664,"ECCENTRICITY":0.56153312,"INCLINATION":64.5558,"RA_OF_ASC_NODE":300.2281,"ARG_OF_PERICENTER":338.9414,"MEAN_ANOMALY":5.0502,"EPHEMERIS_TYPE":0,"CLASSIFICATION_TYPE":"U","NORAD_CAT_ID":48541,"ELEMENT_SET_NO":999,"REV_AT_EPOCH":16996,"BSTAR":0.013014937,"MEAN_MOTION_DOT":4.714e-5,"MEAN_MOTION_DDOT":0}]
